#dP2024  2 23  6  0  0.00000000      96 __u+U IGS20 EXT  IAC
## 2302 453600.00000000   900.00000000 60363 0.2500000000000
+  119   C06C07C08C09C10C11C12C13C14C16C19C20C21C22C23C24C25
+        C26C27C28C29C30C32C33C34C35C36C37C38C39C40C41C42C43
+        C44C45C46E02E03E04E05E07E08E09E10E11E12E13E14E15E18
+        E19E21E24E25E26E27E30E31E33E34E36G01G02G03G04G05G06
+        G07G08G09G10G11G12G13G14G15G16G17G18G19G20G21G22G23
+        G24G25G26G27G28G29G30G31G32J02J03J04R01R02R03R04R05
+        R07R08R09R11R12R13R14R15R16R17R18R19R20R21R22R24R26
++         9 11 10  9  9  9  9 11 10  9  9 10 10 10  9  9  9
++        10  8  9  9  9  9  9  8 10  9  9 11 10 10  9 10  8
++         9 10 10  8  8  8  9  9  8  9 10  9  9  9  9  9  8
++         9  9  9  9  9  8  9  9  9  9  8  8  9  8  8  9  9
++         9 10  9  9  9  9 11  9  9  9  8  9  8  9  9  9  9
++         8  8  9  9  9  9  9  9  8 10  9  0  9 10  9 10  9
++        10  9  9 10  9  9 10  9  9 10  8  9  9 10  9  8  9
%c M  cc GPS ccc cccc cccc cccc cccc ccccc ccccc ccccc ccccc
%c cc cc ccc ccc cccc cccc cccc cccc ccccc ccccc ccccc ccccc
%f  0.0000000  0.000000000  0.00000000000  0.000000000000000
%f  0.0000000  0.000000000  0.00000000000  0.000000000000000
%i    0    0    0    0      0      0      0      0         0
%i    0    0    0    0      0      0      0      0         0
/* IAC                                ULTRA-RAPID PREDICTION
/* S/V CLOCKS ARE ALIGNED TO GNSS TIME                      
/* G:C1WC2W R:C1PC2P E:C1XC5X C:C2IC6I J:C1CC2S             
/* PCV:IGS20_2290 OL/AL:FES2004  NONE     YN ORB:CoN CLK:CoN
*  2024 02 23 15 45  0.00000000
PC06 -19083.047981  32643.695796 -18919.800200    129.257285
PC07  -4770.919513  37709.847873 -17938.841173   -848.631599
PC08  -5731.299310  19541.027809  36919.741586     15.679952
PC09 -12724.739062  31330.033427 -25120.276315   -529.884932
PC10   1591.349758  39996.967879 -11994.698446     73.042157
PC11  18455.860889  -2663.880931  20831.864257    425.683542
PC12   6989.459251  15913.816037  21872.667200    763.074663
PC13   3516.065910  23264.985029  35195.329874    419.805402
PC14  18841.666588   7841.140777 -18988.543843    255.601311
PC16 -21772.410728  32216.235121 -16440.305747   -356.950752
PC19 -16121.972913   2347.158349  22688.917964   -924.258103
PC20 -18764.246803 -15486.769883  13713.419806   -191.291151
PC21  10170.104365  25582.452047   4498.510159   -961.716753
PC22  -4076.599896  19888.557955  19135.822744    -99.050976
PC23  14862.554894 -13530.191323  19357.326501   -779.349910
PC24  23712.139392   9129.261804 -11589.918217    911.305762
PC25  26979.045597  -4051.418265   5909.012850    333.240835
PC26   7316.179451  15795.953572 -21838.225145   -253.350319
PC27   -260.090071 -22014.252285 -17158.553025    275.308366
PC28  12890.220809 -24540.491057  -3197.558212    209.588921
PC29 -19689.820981  12413.956371 -15403.381901    245.691584
PC30 -14023.763629  -7796.678028 -22839.957413    -28.888732
PC32 -10362.390438 -25517.935309  -4529.753655   -572.110606
PC33  16139.819812  -2389.753807 -22628.592324   -951.181872
PC34  14903.438606   6260.865650  22733.619178    375.678070
PC35 -12051.526562  25007.125449   3056.139707    426.814716
PC36 -27173.839826   3128.290781  -5485.674712     -4.637688
PC37  -6404.471611 -16011.697002  21937.617621   -938.445349
PC38 -14889.468925  18654.468238  34790.847475    138.619751
PC39 -24780.028446  32699.619620 -10161.055730     -7.274974
PC40  -9174.717656  34717.020439 -21876.119880    -57.795669
PC41   4599.173979 -19372.877388 -19500.069396   -895.033824
PC42  18526.491025  16795.546940 -12308.032960   -451.882069
PC43  19766.439474 -11463.669470  15991.698551     61.559383
PC44   1005.383130  22171.863673  16922.782415    393.288456
PC45 -14666.264230  13473.737476 -19547.457826    -71.910658
PC46 -24207.884189  -8598.602359  10836.917144   -126.225235
PE02 -25845.688304  -9040.731741 -11231.261727    105.785105
PE03 -16798.795512  -2379.825748  24254.946104    -95.772426
PE04  14036.811739 -19350.336782 -17446.414156   -334.114115
PE05  -9713.167634 -22358.990895  16796.746781   4722.805007
PE07  -3385.813786  29386.846403    940.864588   -105.318564
PE08 -14203.387391  18708.031916  18009.153260   -228.463397
PE09   3434.658965 -29388.495204  -1045.219779   -346.573026
PE10  18244.369035 -18472.826068 -14213.429280   -604.195049
PE11   8004.351431 -18849.900492 -21369.269075   3228.051151
PE12  24638.052628 -15348.471051  -5723.857557   -918.902123
PE13  -8759.757043  18890.702004  21051.064341    -20.285936
PE14  17030.696803  -6582.665361  18951.528444     47.683502
PE15 -24917.201164  15125.768484   5203.599744    -87.455298
PE18 -18774.851234  -6188.978730 -23035.186902    359.923608
PE19  16293.177887   5003.945362 -24190.881969   -559.040946
PE21  20466.881253  20314.725237  -6700.623565   -580.520482
PE24  -2367.202903 -20123.877153  21546.260934   -614.395634
PE25 -20211.299190 -20434.299434   7056.721123      1.266591
PE26  12936.714451  11329.706974  24100.156736    377.237975
PE27   2866.617700  20237.316745 -21421.142580   -282.040935
PE30 -16447.418371   8060.807815 -23266.529649    -26.998694
PE31  16234.740561  -8222.004239  23344.767416    -16.680852
PE33  26031.783682  -2122.395904  13933.776073      8.029512
PE34 -26233.295685   2592.102814 -13464.290016    -96.266998
PE36 -12268.659134 -11546.607975 -24333.461054   -190.001655
PG01   -579.471916 -15476.399953 -21871.016564    170.775334
PG02   8021.801547 -18240.466657 -16938.707446   -480.898756
PG03  -4977.410813 -18480.653752 -18612.392218    211.491844
PG04   1576.695868 -26367.776907   1952.004620    298.850681
PG05  -8067.348501  12578.533344  21784.621351   -162.902119
PG06 -24482.269820   4668.975162  -9266.737470    395.518005
PG07 -13230.425915 -10398.867570  21135.041748    -68.843069
PG08   5979.186126 -24675.955436   6898.254892      3.973888
PG09  -8428.544235 -21153.670508  13545.488949    101.941028
PG10  23545.722867   9901.235603  -7657.996378      1.171272
PG11 -23610.511538  11854.085986   2501.350397   -585.500410
PG12   2839.483781  18894.777669 -18764.338032   -480.820134
PG13 -13257.794917  18654.202843  13083.069149    628.180671
PG14 -23000.197693 -12764.073563  -4336.527341    333.360312
PG15  -2919.273594  25355.965033   6456.571258    130.722912
PG16  14560.066170  -6869.607698  20870.640641   -356.231643
PG17 -13046.428240  -9291.014142 -20736.430351    716.045147
PG18  13824.021289   9183.273504  20792.974115   -561.865648
PG19 -15334.800678    613.369104 -21831.862650    444.721376
PG20 -19280.412305   4997.208997  17555.058424    386.408808
PG21  12488.934881 -18309.329213 -13380.783543    133.867963
PG22 -22212.543979  -7944.350071 -11483.081287     26.499366
PG23  20477.547923  16548.006585   4235.941624    162.432371
PG24  -8938.878260  19273.765983 -16093.909608   -436.385472
PG25  13863.123475  19521.041064 -12121.030587    489.451280
PG26  22212.544971    197.938771  14673.542523    187.084033
PG27  12629.855925 -15975.799688  16534.374124     -6.524851
PG28  23616.772986  -3062.640623 -11774.480579   -140.956066
PG29   5160.929484  22749.513761  12551.824934   -606.369552
PG30 -21624.048716  -2381.631991  15545.840159   -428.748184
PG31  25021.231954  -9198.745001  -2764.646881   -227.857923
PG32  14571.668563   5415.714363 -21355.749008   -613.097866
PJ02 -24155.786097  17296.493313 -25302.988613     -2.254812
PJ03 -29201.180562  30378.627606   6974.983487     -0.230663
PJ04      0.000000      0.000000      0.000000     50.819214
PR01   8539.697459  24028.581325   -234.135709     77.925448
PR02  12608.858268  14927.704621 -16385.781520    -22.521984
PR03  10362.082291  -3140.766952 -23044.319126     95.072305
PR04   2381.007571 -18873.454482 -16952.045539    224.677568
PR05  -6696.347018 -24541.047116  -1698.466911    127.356394
PR07 -10056.843269   4190.805257  23110.823298     76.459340
PR08  -2232.888127  19091.288561  16852.635237    -74.519691
PR09 -23446.388896  -7679.232361   6652.149526    171.602054
PR11 -11428.048557   8024.164513 -21344.430901     33.386464
PR12   9546.307090  12004.158746 -20369.260061     37.061199
PR13  22184.462922   8827.949282  -9004.935361    -44.645058
PR14  23242.506883   -484.804239  10483.237958     26.095575
PR15   9990.804278  -8634.253009  21834.990219     81.938609
PR16  -9347.603123 -11837.022259  20582.763022     23.485609
PR17  18840.819876 -12470.524309  11881.610796     63.611730
PR18  15681.953983 -19581.091934  -4433.946967    128.851832
PR19   6328.927911 -17391.447455 -17550.157111   -266.904504
PR20 -11033.843800  -3301.537146 -22755.799087   -108.730487
PR21 -18910.075993  12486.867059 -11690.595564    -79.281164
PR22 -15626.796009  19407.512530   5532.772591    109.525790
PR24  11867.538492   2704.382747  22436.073258    -45.100150
PR26  -2650.304827  18391.330275  17488.522634   -196.941226
EOF
